NORAD_CAT_ID,OBJECT_NAME,OBJECT_TYPE,EPOCH,MEAN_MOTION,ECCENTRICITY,INCLINATION,RA_OF_ASC_NODE,ARG_OF_PERICENTER,MEAN_ANOMALY,BSTAR,MEAN_MOTION_DOT,MEAN_MOTION_DDOT,TLE_LINE0,TLE_LINE1,TLE_LINE2,SEMIMAJOR_AXIS,PERIOD,APOGEE,PERIGEE,DECAYED
52134.0,STARLINK-3721,PAYLOAD,2022-10-23 03:34:18,15.08836821,0.0001938,53.2187,206.6942,57.8583,302.2597,-2.4529e-05,-6.79e-06,0.0,0 STARLINK-3721,1 52134U 22029AY  22296.14883031 -.00000679  00000-0 -24529-4 0  9999,2 52134  53.2187 206.6942 0001938  57.8583 302.2597 15.08836821 34714,6917.89,95.438,541.096,538.414,0.0
52134.0,STARLINK-3721,PAYLOAD,2022-10-23 17:52:46,15.08845714,0.0001928,53.2189,204.017,57.7318,302.3861,8.3933e-05,1.048e-05,0.0,0 STARLINK-3721,1 52134U 22029AY  22296.74497952  .00001048  00000-0  83933-4 0  9991,2 52134  53.2189 204.0170 0001928  57.7318 302.3861 15.08845714 34801,6917.863,95.437,541.062,538.394,0.0
52134.0,STARLINK-3721,PAYLOAD,2022-10-24 00:14:18,15.08853717,0.0001946,53.2187,202.8289,58.6447,301.4736,0.00014249,1.981e-05,0.0,0 STARLINK-3721,1 52134U 22029AY  22297.00993061  .00001981  00000-0  14249-3 0  9992,2 52134  53.2187 202.8289 0001946  58.6447 301.4736 15.08853717 34846,6917.8380000000025,95.437,541.05,538.357,0.0
52134.0,STARLINK-3721,PAYLOAD,2022-10-24 11:21:59,15.08858335,0.0001916999999999,53.2184,200.7479,58.9044,301.2136,0.00010158,1.33e-05,0.0,0 STARLINK-3721,1 52134U 22029AY  22297.47360413  .00001330  00000-0  10158-3 0  9995,2 52134  53.2184 200.7479 0001917  58.9044 301.2136 15.08858335 34916,6917.824000000001,95.436,541.015,538.363,0.0
52134.0,STARLINK-3721,PAYLOAD,2022-10-24 17:43:33,15.08832769,0.0001988,53.2187,199.5562,63.4763,296.6433,4.3272e-05,4e-06,0.0,0 STARLINK-3721,1 52134U 22029AY  22297.73858540  .00000400  00000-0  43272-4 0  9998,2 52134  53.2187 199.5562 0001988  63.4763 296.6433 15.08832769 34958,6917.901999999999,95.438,541.143,538.3919999999998,0.0
52134.0,STARLINK-3721,PAYLOAD,2022-10-25 03:15:53,15.08825383,0.0001644,53.2182,197.774,58.3088,301.8064,-8.1228e-05,-1.58e-05,0.0,0 STARLINK-3721,1 52134U 22029AY  22298.13603736 -.00001580  00000-0 -81228-4 0  9993,2 52134  53.2182 197.7740 0001644  58.3088 301.8064 15.08825383 35014,6917.925,95.438,540.927,538.653,0.0
52134.0,STARLINK-3721,PAYLOAD,2022-10-25 20:45:07,15.08843219,0.0001664,53.2178,194.5024,57.4373,302.678,-0.00011655,-2.143e-05,0.0,0 STARLINK-3721,1 52134U 22029AY  22298.86467035 -.00002143  00000-0 -11655-3 0  9995,2 52134  53.2178 194.5024 0001664  57.4373 302.6780 15.08843219 35122,6917.871,95.437,540.887,538.5840000000002,0.0
52134.0,STARLINK-3721,PAYLOAD,2022-10-26 03:06:40,15.08835333,0.0001715,53.2176,193.3133,58.6761,301.4398,-0.00016038,-2.839e-05,0.0,0 STARLINK-3721,1 52134U 22029AY  22299.12963716 -.00002839  00000-0 -16038-3 0  9994,2 52134  53.2176 193.3133 0001715  58.6761 301.4398 15.08835333 35163,6917.895,95.438,540.946,538.573,0.0
52134.0,STARLINK-3721,PAYLOAD,2022-10-27 02:57:27,15.08827988,0.0001793,53.2182,188.8532,53.2663,306.8494,0.00024208,3.566e-05,0.0,0 STARLINK-3721,1 52134U 22029AY  22300.12323497  .00003566  00000-0  24208-3 0  9997,2 52134  53.2182 188.8532 0001793  53.2663 306.8494 15.08827988 35310,6917.917,95.438,541.0219999999998,538.5419999999998,0.0
52134.0,STARLINK-3721,PAYLOAD,2022-10-27 20:26:40,15.0884882,0.0001885,53.2183,185.5818,57.4529,302.6645,0.00021475,3.132e-05,0.0,0 STARLINK-3721,1 52134U 22029AY  22300.85186072  .00003132  00000-0  21475-3 0  9995,2 52134  53.2183 185.5818 0001885  57.4529 302.6645 15.08848820 35423,6917.853,95.437,541.0219999999998,538.414,0.0
52134.0,STARLINK-3721,PAYLOAD,2022-10-28 01:12:50,15.08841395,0.0001940999999999,53.2185,184.6901,57.5519,302.5661,0.00014628,2.041e-05,0.0,0 STARLINK-3721,1 52134U 22029AY  22301.05058700  .00002041  00000-0  14628-3 0  9994,2 52134  53.2185 184.6901 0001941  57.5519 302.5661 15.08841395 35451,6917.876,95.437,541.0840000000002,538.398,0.0
52134.0,STARLINK-3721,PAYLOAD,2022-10-28 20:17:28,15.08848166,0.000192,53.2181,181.1232,55.9023,304.2152,-3.0008e-05,-7.66e-06,0.0,0 STARLINK-3721,1 52134U 22029AY  22301.84546745 -.00000766  00000-0 -30008-4 0  9997,2 52134  53.2181 181.1232 0001920  55.9023 304.2152 15.08848166 35575,6917.855,95.437,541.049,538.3919999999998,0.0
52134.0,STARLINK-3721,PAYLOAD,2022-10-29 02:39:01,15.08840176,0.0001886999999999,53.2187,179.9325,54.9443,305.1726,-7.011699999999999e-05,-1.404e-05,0.0,0 STARLINK-3721,1 52134U 22029AY  22302.11043102 -.00001404  00000-0 -70117-4 0  9992,2 52134  53.2187 179.9325 0001887  54.9443 305.1726 15.08840176 35611,6917.88,95.438,541.05,538.439,0.0
52134.0,STARLINK-3721,PAYLOAD,2022-10-29 18:32:51,15.08849188,0.0001684,53.2183,176.9591,56.5196,303.5957,9.3275e-06,-1.4e-06,0.0,0 STARLINK-3721,1 52134U 22029AY  22302.77281934 -.00000140  00000-0  93275-5 0  9997,2 52134  53.2183 176.9591 0001684  56.5196 303.5957 15.08849188 35718,6917.852,95.437,540.882,538.552,0.0
52134.0,STARLINK-3721,PAYLOAD,2022-10-29 23:19:01,15.08847927,0.0001710999999999,53.2183,176.0667,54.4748,305.6403,-5.7611e-06,-3.8e-06,0.0,0 STARLINK-3721,1 52134U 22029AY  22302.97153960 -.00000380  00000-0 -57611-5 0  9997,2 52134  53.2183 176.0667 0001711  54.4748 305.6403 15.08847927 35745,6917.856,95.437,540.905,538.538,0.0
52134.0,STARLINK-3721,PAYLOAD,2022-10-30 21:34:25,15.08834483,0.0001499,53.2184,171.90400000000002,51.4239,308.6887,-8.263299999999999e-05,-1.603e-05,0.0,0 STARLINK-3721,1 52134U 22029AY  22303.89890741 -.00001603  00000-0 -82633-4 0  9994,2 52134  53.2184 171.9040 0001499  51.4239 308.6887 15.08834483 35887,6917.897,95.438,540.799,538.725,0.0
52134.0,STARLINK-3721,PAYLOAD,2022-10-31 08:42:08,15.08819525,0.0001482,53.2173,169.8208,61.2405,298.8735,-9.0719e-05,-1.731e-05,0.0,0 STARLINK-3721,1 52134U 22029AY  22304.36259838 -.00001731  00000-0 -90719-4 0  9999,2 52134  53.2173 169.8208 0001482  61.2405 298.8735 15.08819525 35953,6917.943,95.439,540.8330000000002,538.783,0.0
52134.0,STARLINK-3721,PAYLOAD,2022-10-31 18:14:27,15.08827625,0.0001533,53.2184,168.0388,48.5274,311.5849,-9.5757e-05,-1.811e-05,0.0,0 STARLINK-3721,1 52134U 22029AY  22304.76003723 -.00001811  00000-0 -95757-4 0  9999,2 52134  53.2184 168.0388 0001533  48.5274 311.5849 15.08827625 36011,6917.918000000002,95.438,540.844,538.7230000000002,0.0
52134.0,STARLINK-3721,PAYLOAD,2022-11-01 02:11:22,15.08835359,0.0001641,53.2175,166.5514,53.2809,306.8333,-2.3675e-05,-6.65e-06,0.0,0 STARLINK-3721,1 52134U 22029AY  22305.09123165 -.00000665  00000-0 -23675-4 0  9995,2 52134  53.2175 166.5514 0001641  53.2809 306.8333 15.08835359 36065,6917.895,95.438,540.895,538.624,0.0
52134.0,STARLINK-3721,PAYLOAD,2022-11-01 08:32:54,15.08842757,0.0001662,53.2177,165.3628,51.4682,308.6459,9.4299e-06,-1.38e-06,0.0,0 STARLINK-3721,1 52134U 22029AY  22305.35618639 -.00000138  00000-0  94299-5 0  9994,2 52134  53.2177 165.3628 0001662  51.4682 308.6459 15.08842757 36106,6917.871999999999,95.437,540.887,538.587,0.0
52134.0,STARLINK-3721,PAYLOAD,2022-11-01 16:29:50,15.08830581,0.0001617,53.2178,163.87599999999995,53.3027,306.8114,3.9084e-05,3.34e-06,0.0,0 STARLINK-3721,1 52134U 22029AY  22305.68739320  .00000334  00000-0  39084-4 0  9998,2 52134  53.2178 163.8760 0001617  53.3027 306.8114 15.08830581 36156,6917.909000000002,95.438,540.893,538.656,0.0
52134.0,STARLINK-3721,PAYLOAD,2022-11-02 02:02:09,15.08831438,0.0001793,53.2169,162.0923,52.5745,307.541,2.2695e-05,7.3e-07,0.0,0 STARLINK-3721,1 52134U 22029AY  22306.08483573  .00000073  00000-0  22695-4 0  9999,2 52134  53.2169 162.0923 0001793  52.5745 307.5410 15.08831438 36217,6917.906999999997,95.438,541.012,538.531,0.0
52134.0,STARLINK-3721,PAYLOAD,2022-11-02 16:20:38,15.08830726,0.0001579,53.2166,159.4141,64.7266,295.389,4.903100000000001e-05,4.92e-06,0.0,0 STARLINK-3721,1 52134U 22029AY  22306.68099937  .00000492  00000-0  49031-4 0  9990,2 52134  53.2166 159.4141 0001579  64.7266 295.3890 15.08830726 36306,6917.909000000002,95.438,540.866,538.681,0.0
52134.0,STARLINK-3721,PAYLOAD,2022-11-03 01:52:57,15.08833901,0.0001523,53.217,157.6306,62.6522,297.4625,3.1138e-05,2.08e-06,0.0,0 STARLINK-3721,1 52134U 22029AY  22307.07843990  .00000208  00000-0  31138-4 0  9994,2 52134  53.2170 157.6306 0001523  62.6522 297.4625 15.08833901 36368,6917.899,95.438,540.818,538.71,0.0
52134.0,STARLINK-3721,PAYLOAD,2022-11-03 06:39:06,15.08840622,0.0001597,53.2169,156.7393,57.3616,302.753,2.4609e-05,1.04e-06,0.0,0 STARLINK-3721,1 52134U 22029AY  22307.27715666  .00000104  00000-0  24609-4 0  9994,2 52134  53.2169 156.7393 0001597  57.3616 302.7530 15.08840622 36394,6917.878000000002,95.438,540.8480000000002,538.639,0.0
52134.0,STARLINK-3721,PAYLOAD,2022-11-03 16:11:24,15.08844462,0.0001523,53.2172,154.9543,57.8608,302.2532,9.7854e-05,1.27e-05,0.0,0 STARLINK-3721,1 52134U 22029AY  22307.67459065  .00001270  00000-0  97854-4 0  9993,2 52134  53.2172 154.9543 0001523  57.8608 302.2532 15.08844462 36450,6917.8669999999975,95.437,540.785,538.678,0.0
52134.0,STARLINK-3721,PAYLOAD,2022-11-04 06:29:52,15.08842817,0.0001489,53.2179,152.2779,54.9259,305.1872,9.9999e-05,1.304e-05,0.0,0 STARLINK-3721,1 52134U 22029AY  22308.27074996  .00001304  00000-0  99999-4 0  9996,2 52134  53.2179 152.2779 0001489  54.9259 305.1872 15.08842817 36541,6917.871999999999,95.437,540.7669999999998,538.707,0.0
52134.0,STARLINK-3721,PAYLOAD,2022-11-04 16:02:12,15.08836578,0.0001684,53.2178,150.4946,51.3413,308.7729,1.0503e-05,-1.21e-06,0.0,0 STARLINK-3721,1 52134U 22029AY  22308.66819766 -.00000121  00000-0  10503-4 0  9992,2 52134  53.2178 150.4946 0001684  51.3413 308.7729 15.08836578 36600,6917.891,95.438,540.9209999999998,538.591,0.0
52134.0,STARLINK-3721,PAYLOAD,2022-11-05 12:42:13,15.08834239,0.0001797,53.2175,146.6286,54.8237,305.2923,-5.0315e-05,-1.089e-05,0.0,0 STARLINK-3721,1 52134U 22029AY  22309.52932243 -.00001089  00000-0 -50315-4 0  9994,2 52134  53.2175 146.6286 0001797  54.8237 305.2923 15.08834239 36732,6917.898,95.438,541.006,538.52,0.0
